{"fetched_at":"2026-05-03T06:27:58Z","count":17151,"tles":[{"name":"KUIPER-00483","line1":"1 68878U 26095Q   26122.41670139  .00065902  00000+0  18592-2 0  9991","line2":"2 68878  51.8716 103.7541 0010810 136.9912 347.0248 15.35727575  1308","category":"Other"}]}